start=new Date('2021-10-31T00:00:00.000Z').valueOf();
sats=[{"OBJECT_NAME":"STARLINK-1068","BSTAR":"0.00002332800000","CLASSIFICATION_TYPE":"U","PERIAPSIS":"545.990","MEAN_MOTION_DOT":"0.00000066","ELEMENT_SET_NO":"999","PERIOD":"95.592","EPOCH":"2021-10-30T16:06:23.074560","INCLINATION":"53.0536","APOAPSIS":"548.469","GP_ID":"188521839","COUNTRY_CODE":"US","MEAN_MOTION":"15.06394775","REV_AT_EPOCH":"10883","TLE_LINE2":"2 44772  53.0536 148.9823 0001790  75.4387 284.6800 15.06394775108839","REF_FRAME":"TEME","SITE":"AFETR","MEAN_ANOMALY":"284.6800","OBJECT_ID":"2019-074BM","MEAN_MOTION_DDOT":"0.0000000000000","LAUNCH_DATE":"2019-11-11","SEMIMAJOR_AXIS":"6925.365","EPHEMERIS_TYPE":"0","OBJECT_TYPE":"PAYLOAD","ECCENTRICITY":"0.00017900","DECAY_DATE":null,"FILE":"3193095","ARG_OF_PERICENTER":"75.4387","TLE_LINE1":"1 44772U 19074BM  21303.67110040  .00000066  00000-0  23328-4 0  9997","TIME_SYSTEM":"UTC","RA_OF_ASC_NODE":"148.9823","RCS_SIZE":"LARGE","CENTER_NAME":"EARTH","MEAN_ELEMENT_THEORY":"SGP4","NORAD_CAT_ID":"44772"},{"MEAN_ANOMALY":"290.0603","REF_FRAME":"TEME","SITE":"AFETR","REV_AT_EPOCH":"10001","TLE_LINE2":"2 44914  53.0529 289.8066 0001569  70.0555 290.0603 15.06401467100016","MEAN_MOTION":"15.06401467","GP_ID":"188488861","COUNTRY_CODE":"US","APOAPSIS":"548.296","EPOCH":"2021-10-30T11:43:37.865280","INCLINATION":"53.0529","MEAN_MOTION_DOT":"0.00001335","PERIAPSIS":"546.122","ELEMENT_SET_NO":"999","PERIOD":"95.592","CLASSIFICATION_TYPE":"U","BSTAR":"0.00010851000000","OBJECT_NAME":"STARLINK-1073","NORAD_CAT_ID":"44914","MEAN_ELEMENT_THEORY":"SGP4","RCS_SIZE":"LARGE","CENTER_NAME":"EARTH","TLE_LINE1":"1 44914U 20001A   21303.48863270  .00001335  00000-0  10851-3 0  9992","TIME_SYSTEM":"UTC","RA_OF_ASC_NODE":"289.8066","ARG_OF_PERICENTER":"70.0555","FILE":"3192708","DECAY_DATE":null,"OBJECT_TYPE":"PAYLOAD","ECCENTRICITY":"0.00015690","EPHEMERIS_TYPE":"0","LAUNCH_DATE":"2020-01-07","SEMIMAJOR_AXIS":"6925.344","MEAN_MOTION_DDOT":"0.0000000000000","OBJECT_ID":"2020-001A"},{"REV_AT_EPOCH":"9998","TLE_LINE2":"2 44915  53.0531 290.8657 0001534  83.9759 276.1404 15.06412256 99984","MEAN_MOTION":"15.06412256","MEAN_ANOMALY":"276.1404","REF_FRAME":"TEME","SITE":"AFETR","GP_ID":"188513856","COUNTRY_CODE":"US","APOAPSIS":"548.238","EPOCH":"2021-10-30T06:03:55.656000","INCLINATION":"53.0531","PERIAPSIS":"546.114","MEAN_MOTION_DOT":"0.00001930","PERIOD":"95.591","ELEMENT_SET_NO":"999","BSTAR":"0.00014841000000","OBJECT_NAME":"STARLINK-1084","CLASSIFICATION_TYPE":"U","NORAD_CAT_ID":"44915","MEAN_ELEMENT_THEORY":"SGP4","RCS_SIZE":"LARGE","CENTER_NAME":"EARTH","TLE_LINE1":"1 44915U 20001B   21303.25272750  .00001930  00000-0  14841-3 0  9999","TIME_SYSTEM":"UTC","RA_OF_ASC_NODE":"290.8657","ARG_OF_PERICENTER":"83.9759","FILE":"3192905","OBJECT_TYPE":"PAYLOAD","ECCENTRICITY":"0.00015340","DECAY_DATE":null,"MEAN_MOTION_DDOT":"0.0000000000000","OBJECT_ID":"2020-001B","EPHEMERIS_TYPE":"0","LAUNCH_DATE":"2020-01-07","SEMIMAJOR_AXIS":"6925.311"},{"ARG_OF_PERICENTER":"20.9607","FILE":"3193227","RA_OF_ASC_NODE":"248.5908","TIME_SYSTEM":"UTC","TLE_LINE1":"1 44916U 20001C   21303.57877215  .00021018  00000-0  16533-3 0  9991","CENTER_NAME":"EARTH","RCS_SIZE":"LARGE","MEAN_ELEMENT_THEORY":"SGP4","NORAD_CAT_ID":"44916","OBJECT_ID":"2020-001C","MEAN_MOTION_DDOT":"0.0000000000000","LAUNCH_DATE":"2020-01-07","SEMIMAJOR_AXIS":"6732.816","EPHEMERIS_TYPE":"0","ECCENTRICITY":"0.00029380","OBJECT_TYPE":"PAYLOAD","DECAY_DATE":null,"APOAPSIS":"356.659","COUNTRY_CODE":"US","GP_ID":"188524575","MEAN_MOTION":"15.71475649","REV_AT_EPOCH":"10060","TLE_LINE2":"2 44916  53.0520 248.5908 0002938  20.9607 339.1530 15.71475649100603","SITE":"AFETR","REF_FRAME":"TEME","MEAN_ANOMALY":"339.1530","OBJECT_NAME":"STARLINK-1097","BSTAR":"0.00016533000000","CLASSIFICATION_TYPE":"U","PERIOD":"91.634","ELEMENT_SET_NO":"999","PERIAPSIS":"352.703","MEAN_MOTION_DOT":"0.00021018","EPOCH":"2021-10-30T13:53:25.913760","INCLINATION":"53.0520"},{"APOAPSIS":"548.261","COUNTRY_CODE":"US","GP_ID":"188489428","MEAN_MOTION":"15.06401555","REV_AT_EPOCH":"10001","TLE_LINE2":"2 44917  53.0528 289.9592 0001519  78.7966 281.3194 15.06401555100015","SITE":"AFETR","REF_FRAME":"TEME","MEAN_ANOMALY":"281.3194","OBJECT_NAME":"STARLINK-1098","BSTAR":"0.00016303000000","CLASSIFICATION_TYPE":"U","ELEMENT_SET_NO":"999","PERIOD":"95.592","PERIAPSIS":"546.157","MEAN_MOTION_DOT":"0.00002148","EPOCH":"2021-10-30T10:55:52.042080","INCLINATION":"53.0528","FILE":"3192719","ARG_OF_PERICENTER":"78.7966","TIME_SYSTEM":"UTC","RA_OF_ASC_NODE":"289.9592","TLE_LINE1":"1 44917U 20001D   21303.45546345  .00002148  00000-0  16303-3 0  9994","CENTER_NAME":"EARTH","RCS_SIZE":"LARGE","MEAN_ELEMENT_THEORY":"SGP4","NORAD_CAT_ID":"44917","OBJECT_ID":"2020-001D","MEAN_MOTION_DDOT":"0.0000000000000","LAUNCH_DATE":"2020-01-07","SEMIMAJOR_AXIS":"6925.344","EPHEMERIS_TYPE":"0","ECCENTRICITY":"0.00015190","OBJECT_TYPE":"PAYLOAD","DECAY_DATE":null},{"EPHEMERIS_TYPE":"0","LAUNCH_DATE":"2020-01-07","SEMIMAJOR_AXIS":"6925.360","MEAN_MOTION_DDOT":"0.0000000000000","OBJECT_ID":"2020-001E","DECAY_DATE":null,"ECCENTRICITY":"0.00014440","OBJECT_TYPE":"PAYLOAD","RA_OF_ASC_NODE":"290.5043","TIME_SYSTEM":"UTC","TLE_LINE1":"1 44918U 20001E   21303.33382524  .00000902  00000-0  79444-4 0  9991","FILE":"3192905","ARG_OF_PERICENTER":"74.4268","MEAN_ELEMENT_THEORY":"SGP4","NORAD_CAT_ID":"44918","CENTER_NAME":"EARTH","RCS_SIZE":"LARGE","CLASSIFICATION_TYPE":"U","BSTAR":"0.00007944400000","OBJECT_NAME":"STARLINK-1099","INCLINATION":"53.0552","EPOCH":"2021-10-30T08:00:42.500736","ELEMENT_SET_NO":"999","PERIOD":"95.592","MEAN_MOTION_DOT":"0.00000902","PERIAPSIS":"546.225","COUNTRY_CODE":"US","GP_ID":"188514107","APOAPSIS":"548.225","MEAN_ANOMALY":"285.6880","SITE":"AFETR","REF_FRAME":"TEME","REV_AT_EPOCH":"10073","TLE_LINE2":"2 44918  53.0552 290.5043 0001444  74.4268 285.6880 15.06396357100738","MEAN_MOTION":"15.06396357"},{"COUNTRY_CODE":"US","GP_ID":"188524579","APOAPSIS":"353.915","REV_AT_EPOCH":"10059","TLE_LINE2":"2 44919  53.0507 250.6783 0003626 310.1883  49.8817 15.72598880100596","MEAN_MOTION":"15.72598880","MEAN_ANOMALY":"49.8817","SITE":"AFETR","REF_FRAME":"TEME","BSTAR":"0.00298510000000","OBJECT_NAME":"STARLINK-1101","CLASSIFICATION_TYPE":"U","EPOCH":"2021-10-30T19:35:20.865408","INCLINATION":"53.0507","ELEMENT_SET_NO":"999","PERIOD":"91.568","PERIAPSIS":"349.034","MEAN_MOTION_DOT":"0.00429421","TIME_SYSTEM":"UTC","RA_OF_ASC_NODE":"250.6783","TLE_LINE1":"1 44919U 20001F   21303.81621372  .00429421  00000-0  29851-2 0  9998","FILE":"3193227","ARG_OF_PERICENTER":"310.1883","NORAD_CAT_ID":"44919","MEAN_ELEMENT_THEORY":"SGP4","CENTER_NAME":"EARTH","RCS_SIZE":"LARGE","MEAN_MOTION_DDOT":"0.0000000000000","OBJECT_ID":"2020-001F","EPHEMERIS_TYPE":"0","SEMIMAJOR_AXIS":"6729.610","LAUNCH_DATE":"2020-01-07","ECCENTRICITY":"0.00036260","OBJECT_TYPE":"PAYLOAD","DECAY_DATE":null},{"COUNTRY_CODE":"US","GP_ID":"188524611","APOAPSIS":"548.370","MEAN_ANOMALY":"285.8566","SITE":"AFETR","REF_FRAME":"TEME","REV_AT_EPOCH":"10004","TLE_LINE2":"2 44920  53.0538 288.9410 0001694  74.2610 285.8566 15.06405468100041","MEAN_MOTION":"15.06405468","CLASSIFICATION_TYPE":"U","BSTAR":"0.00030427000000","OBJECT_NAME":"STARLINK-1102","INCLINATION":"53.0538","EPOCH":"2021-10-30T16:19:38.371872","ELEMENT_SET_NO":"999","PERIOD":"95.592","PERIAPSIS":"546.024","MEAN_MOTION_DOT":"0.00004254","RA_OF_ASC_NODE":"288.9410","TIME_SYSTEM":"UTC","TLE_LINE1":"1 44920U 20001G   21303.68030523  .00004254  00000-0  30427-3 0  9992","FILE":"3193229","ARG_OF_PERICENTER":"74.2610","NORAD_CAT_ID":"44920","MEAN_ELEMENT_THEORY":"SGP4","CENTER_NAME":"EARTH","RCS_SIZE":"LARGE","EPHEMERIS_TYPE":"0","LAUNCH_DATE":"2020-01-07","SEMIMAJOR_AXIS":"6925.332","MEAN_MOTION_DDOT":"0.0000000000000","OBJECT_ID":"2020-001G","DECAY_DATE":null,"ECCENTRICITY":"0.00016940","OBJECT_TYPE":"PAYLOAD"},{"APOAPSIS":"550.778","GP_ID":"188489939","COUNTRY_CODE":"US","MEAN_MOTION":"15.05583261","TLE_LINE2":"2 44921  52.9998 289.8083 0001530  77.1459 282.9700 15.05583261 99994","REV_AT_EPOCH":"9999","REF_FRAME":"TEME","SITE":"AFETR","MEAN_ANOMALY":"282.9700","OBJECT_NAME":"STARLINK-1103","BSTAR":"0.00011908000000","CLASSIFICATION_TYPE":"U","PERIAPSIS":"548.658","MEAN_MOTION_DOT":"0.00001456","ELEMENT_SET_NO":"999","PERIOD":"95.644","EPOCH":"2021-10-30T11:42:36.096192","INCLINATION":"52.9998","FILE":"3192720","ARG_OF_PERICENTER":"77.1459","TLE_LINE1":"1 44921U 20001H   21303.48791778  .00001456  00000-0  11908-3 0  9991","RA_OF_ASC_NODE":"289.8083","TIME_SYSTEM":"UTC","RCS_SIZE":"LARGE","CENTER_NAME":"EARTH","MEAN_ELEMENT_THEORY":"SGP4","NORAD_CAT_ID":"44921","OBJECT_ID":"2020-001H","MEAN_MOTION_DDOT":"0.0000000000000","SEMIMAJOR_AXIS":"6927.853","LAUNCH_DATE":"2020-01-07","EPHEMERIS_TYPE":"0","OBJECT_TYPE":"PAYLOAD","ECCENTRICITY":"0.00015300","DECAY_DATE":null},{"RCS_SIZE":"LARGE","CENTER_NAME":"EARTH","MEAN_ELEMENT_THEORY":"SGP4","NORAD_CAT_ID":"44922","FILE":"3192905","ARG_OF_PERICENTER":"77.2480","TLE_LINE1":"1 44922U 20001J   21303.33751273  .00001262  00000-0  10362-3 0  9990","RA_OF_ASC_NODE":"290.4833","TIME_SYSTEM":"UTC","OBJECT_TYPE":"PAYLOAD","ECCENTRICITY":"0.00014660","DECAY_DATE":null,"OBJECT_ID":"2020-001J","MEAN_MOTION_DDOT":"0.0000000000000","LAUNCH_DATE":"2020-01-07","SEMIMAJOR_AXIS":"6925.353","EPHEMERIS_TYPE":"0","MEAN_MOTION":"15.06398646","REV_AT_EPOCH":"9999","TLE_LINE2":"2 44922  53.0532 290.4833 0001466  77.2480 282.8672 15.06398646 99994","REF_FRAME":"TEME","SITE":"AFETR","MEAN_ANOMALY":"282.8672","APOAPSIS":"548.233","GP_ID":"188513608","COUNTRY_CODE":"US","PERIAPSIS":"546.202","MEAN_MOTION_DOT":"0.00001262","PERIOD":"95.592","ELEMENT_SET_NO":"999","EPOCH":"2021-10-30T08:06:01.099872","INCLINATION":"53.0532","OBJECT_NAME":"STARLINK-1104","BSTAR":"0.00010362000000","CLASSIFICATION_TYPE":"U"}];
